1 08820U 76039A   03194.88983879  .00000003  00000-0  10000-3 0  9458
2 08820 109.8056 190.7366 0044554 295.6454  63.9564  6.38664402378761
